HULIANWANG DIGUI-105    
1 66915U 25285A   26005.30116119 -.00000077  00000+0  53159-4 0  9995
2 66915  50.0067  21.6510 0000606 175.5105 184.5801 13.94336646  4217
HULIANWANG DIGUI-106    
1 66916U 25285B   26005.29755981 -.00000101  00000+0  35019-4 0  9993
2 66916  50.0082  21.6350 0000156 259.0914 100.9969 13.94399895  4215
HULIANWANG DIGUI-107    
1 66917U 25285C   26005.29535987 -.00000058  00000+0  66766-4 0  9990
2 66917  50.0038  21.6109 0000200 119.9451 240.1469 13.94586892  4216
HULIANWANG DIGUI-108    
1 66918U 25285D   26005.29270378 -.00000069  00000+0  58944-4 0  9992
2 66918  50.0069  21.6046 0000245  16.1861 343.9047 13.94726635  4218
HULIANWANG DIGUI-109    
1 66919U 25285E   26005.29047797 -.00000040  00000+0  79700-4 0  9992
2 66919  50.0095  21.6001 0000333 247.3545 112.7321 13.94875051  4218
HULIANWANG DIGUI-110    
1 66920U 25285F   26005.28780691  .00000248  00000+0  29130-3 0  9990
2 66920  50.0133  21.6127 0001654 349.4933  10.5933 13.95214974  4210
HULIANWANG DIGUI-111    
1 66921U 25285G   26005.28624966 -.00000182  00000+0 -24944-4 0  9991
2 66921  50.0157  21.5935 0000338 225.1560 134.9313 13.95206902  4212
HULIANWANG DIGUI-112    
1 66922U 25285H   26005.28467988 -.00000102  00000+0  33939-4 0  9996
2 66922  50.0117  21.5748 0000565 228.8042 131.2810 13.95475858  4218
HULIANWANG DIGUI-113    
1 66923U 25285J   26005.28160892  .00000020  00000+0  12292-3 0  9997
2 66923  50.0109  21.5599 0000710 247.1908 112.8918 13.95597985  4211
CZ-8A R/B               
1 66924U 25285K   26005.34265545  .00000153  00000+0  11215-3 0  9997
2 66924  50.0094  15.6840 0119151 189.9308 169.9251 14.30514537  4300
STARLINK-35945          
1 66925U 25286A   26005.18601230  .00086694  00000+0  15478-2 0  9994
2 66925  53.1589 295.5755 0001453  61.8935 298.2220 15.49341001  5664
STARLINK-35942          
1 66926U 25286B   26005.00001157  .00040095  00000+0  10097-2 0  9995
2 66926  53.1591 296.8378 0001672  61.8528 154.0805 15.39541193  5722
STARLINK-35943          
1 66927U 25286C   26005.19215765 -.00469704  00000+0 -95722-2 0  9990
2 66927  53.1591 295.6160 0001215  65.8337 294.2798 15.47412097  5664
STARLINK-35944          
1 66928U 25286D   26005.25002315  .00104581  00000+0  25944-2 0  9999
2 66928  53.1596 295.4541 0001485  94.0554 171.2863 15.39554169  5761
STARLINK-36169          
1 66929U 25286E   26005.25002315  .00055451  00000+0  13865-2 0  9990
2 66929  53.1593 295.5574 0001312 100.0391 113.7730 15.39612291  5767
STARLINK-36206          
1 66930U 25286F   26005.06202256  .00082731  00000+0  14777-2 0  9991
2 66930  53.1600 296.2251 0001742  79.0010 281.1195 15.49349084  5648
STARLINK-36130          
1 66931U 25286G   26005.09560050  .00066669  00000+0  16620-2 0  9995
2 66931  53.1606 296.4406 0001025  81.3990 278.7131 15.39623051  5646
STARLINK-36177          
1 66932U 25286H   26005.25002315  .00066609  00000+0  16611-2 0  9993
2 66932  53.1597 295.5040 0001399  87.4375 152.1133 15.39612579  5761
STARLINK-36157          
1 66933U 25286J   26003.25477073  .00171097  00000+0  30092-2 0  9996
2 66933  53.1603 304.8537 0000147 328.0965  32.0035 15.49386556  5361
STARLINK-36153          
1 66934U 25286K   26005.21613884  .00084378  00000+0  20939-2 0  9991
2 66934  53.1601 295.7654 0001074 102.8488 257.2637 15.39652255  5669
STARLINK-36127          
1 66935U 25286L   26005.10024094  .00039081  00000+0  98118-3 0  9995
2 66935  53.1602 296.4630 0001293  75.6686 284.4462 15.39645609  5644
STARLINK-36160          
1 66936U 25286M   26005.25002315  .00103020  00000+0  25556-2 0  9994
2 66936  53.1598 295.4019 0001705 105.6291 185.4216 15.39563027  5766
STARLINK-36165          
1 66937U 25286N   26005.12421629 -.00203663  00000+0 -38291-2 0  9990
2 66937  53.1605 295.9015 0004447  32.6221 327.5061 15.48698763  5656
STARLINK-36155          
1 66938U 25286P   26005.18829125  .00104172  00000+0  18539-2 0  9996
2 66938  53.1591 295.5900 0001429  70.8689 289.2475 15.49344282  5668
STARLINK-36154          
1 66939U 25286Q   26005.09593606  .00053115  00000+0  13281-2 0  9998
2 66939  53.1602 296.4386 0001015  69.6906 290.4208 15.39633220  5647
STARLINK-36121          
1 66940U 25286R   26005.22111894  .00074981  00000+0  18641-2 0  9999
2 66940  53.1599 295.7951 0001089  54.8255 305.2852 15.39653467  5665
STARLINK-36088          
1 66941U 25286S   26005.24570914  .00101522  00000+0  18072-2 0  9994
2 66941  53.1589 295.2319 0001785 107.3025 252.8180 15.49349698  5671
STARLINK-36100          
1 66942U 25286T   26005.21647411  .00088426  00000+0  21925-2 0  9997
2 66942  53.1602 295.7653 0000636 100.0392 260.0685 15.39655431  5591
STARLINK-36109          
1 66943U 25286U   26005.25002315  .00119531  00000+0  29568-2 0  9993
2 66943  53.1596 295.5057 0001386  84.1237 153.5589 15.39566723  5698
STARLINK-36112          
1 66944U 25286V   26005.25002315  .00102858  00000+0  25519-2 0  9990
2 66944  53.1599 295.4022 0001393  87.7518 201.4460 15.39559646  5767
STARLINK-36110          
1 66945U 25286W   26005.25002315  .00058071  00000+0  14509-2 0  9995
2 66945  53.1599 295.4528 0001341  90.7544 172.6896 15.39616422  5763
STARLINK-36115          
1 66946U 25286X   26005.25002315  .00093781  00000+0  23312-2 0  9995
2 66946  53.1596 295.3511 0001110  88.4399 226.5536 15.39548887  5767
STARLINK-36089          
1 66947U 25286Y   26005.24947893 -.00346774  00000+0 -66747-2 0  9998
2 66947  53.1593 295.2557 0001148 164.7503 195.3541 15.48588708  5675
STARLINK-36116          
1 66948U 25286Z   26005.25002315 -.02146358  00000+0 -56536-1 0  9993
2 66948  53.1590 295.3029 0001112  70.7583 268.1803 15.41794946  5769
STARLINK-36096          
1 66949U 25286AA  26005.00001157  .00014569  00000+0  37354-3 0  9993
2 66949  53.1591 296.7327 0001355  83.9278 181.4685 15.39618218  5728
STARLINK-36111          
1 66950U 25286AB  26004.33336806 -.00031752  00000+0 -56503-3 0  9994
2 66950  53.1591 299.6237 0001388  78.5962 215.4029 15.49314390  5622
STARLINK-35999          
1 66951U 25286AC  26005.05446391  .00072582  00000+0  12994-2 0  9995
2 66951  53.1598 296.1716 0000988 106.3286 253.7832 15.49344051  5644
STARLINK-36122          
1 66952U 25286AD  26005.25002315 -.01982608  00000+0 -47520-1 0  9996
2 66952  53.1591 295.2644 0001099  96.3645 261.3382 15.44276019  5760
HULIANWANG DIGUI-114    
1 66953U 25287A   26004.67149378  .00000013  00000+0 -49532-5 0  9992
2 66953  86.5074 337.8507 0001828  80.1895 279.9463 13.54524820  3652
HULIANWANG DIGUI-115    
1 66954U 25287B   26004.37194255  .00000012  00000+0 -50452-5 0  9996
2 66954  86.4952 337.9680 0001648  70.0444 290.0885 13.54779036  3617
HULIANWANG DIGUI-116    
1 66955U 25287C   26004.36733506  .00000161  00000+0  21174-3 0  9995
2 66955  86.4941 337.9296 0007815  77.8224 282.3803 13.54758532  3614
HULIANWANG DIGUI-117    
1 66956U 25287D   26004.65841115  .00000016  00000+0  71719-6 0  9996
2 66956  86.4949 337.8692 0001546 128.3263 231.8028 13.54919725  3657
HULIANWANG DIGUI-118    
1 66957U 25287E   26004.65408260  .00000163  00000+0  21401-3 0  9990
2 66957  86.4980 337.8547 0001403 144.7624 215.3620 13.55071426  3650
CZ-6A R/B               
1 66958U 25287F   26005.30279188  .00000139  00000+0  85963-4 0  9996
2 66958  86.5076 337.1438 0106351  31.1776 329.5649 13.94924287  3828
STARLINK-35887          
1 66959U 25288A   26005.16955169  .00057436  00000+0  13709-2 0  9991
2 66959  43.0005  27.3120 0001404 265.8051  94.2645 15.40721308  5512
STARLINK-35879          
1 66960U 25288B   26005.25002315  .00038148  00000+0  91745-3 0  9995
2 66960  43.0001  26.4288 0001143 267.7482 353.4138 15.40649590  5603
STARLINK-35761          
1 66961U 25288C   26005.25002315  .00029088  00000+0  70146-3 0  9991
2 66961  43.0003  26.6398 0001068 238.5066 295.5159 15.40677373  5609
STARLINK-35874          
1 66962U 25288D   26005.32436494  .00164903  00000+0  27446-2 0  9999
2 66962  43.0010  25.8853 0001453 241.5832 118.4882 15.50715077  5542
STARLINK-36133          
1 66963U 25288E   26005.32402045  .00116874  00000+0  19618-2 0  9991
2 66963  43.0010  25.8833 0001501 265.7400  94.3289 15.50673421  5543
STARLINK-36104          
1 66964U 25288F   26003.39157045  .00186583  00000+0  31071-2 0  9995
2 66964  43.0002  37.1830 0001175 251.1223 108.9510 15.50614564  5246
STARLINK-36067          
1 66965U 25288G   26005.00001157  .00084326  00000+0  20092-2 0  9991
2 66965  43.0009  28.1673 0001624 245.0191 303.4396 15.40617185  5564
STARLINK-36139          
1 66966U 25288H   26003.39054143  .00006042  00000+0  10872-3 0  9990
2 66966  43.0008  37.1755 0001194 265.8729  94.1994 15.50583166  5249
STARLINK-36136          
1 66967U 25288J   26003.45463087  .00048386  00000+0  82795-3 0  9999
2 66967  43.0002  36.7963 0002957 279.5591  80.4935 15.50492784  5256
STARLINK-36152          
1 66968U 25288K   26005.32230837  .00167768  00000+0  27927-2 0  9994
2 66968  43.0004  25.8683 0001393 237.0476 123.0250 15.50699196  5543
STARLINK-36149          
1 66969U 25288L   26005.16506854  .00055948  00000+0  13360-2 0  9994
2 66969  43.0022  27.2741 0001668 268.2868  91.7798 15.40717480  5512
STARLINK-35703          
1 66970U 25288M   26005.25002315 -.02043919  00000+0 -48652-1 0  9999
2 66970  43.0010  26.2886 0001114 259.1824  58.7702 15.44365078  5601
STARLINK-35678          
1 66971U 25288N   26005.32196455  .00168163  00000+0  27978-2 0  9991
2 66971  43.0007  25.8666 0001299 247.4317 112.6406 15.50712159  5547
STARLINK-34846          
1 66972U 25288P   26005.25002315 -.02313693  00000+0 -57287-1 0  9994
2 66972  43.0004  26.3424 0001686 264.7653  31.6839 15.43071082  5600
STARLINK-35778          
1 66973U 25288Q   26005.22093735  .00058127  00000+0  13875-2 0  9998
2 66973  43.0027  26.8330 0001143 244.2202 115.8537 15.40715116  5529
